{
  "norad_id": 68491,
  "name": "TRANSPORTER-16 OBJECT CD",
  "history": [
    {
      "epoch": "2026-04-15T20:59:32.561088Z",
      "apogee_km": 595.4487901729435,
      "perigee_km": 593.4671786783701,
      "latitude_deg": 5.405464673095253e-05,
      "longitude_deg": -93.82476022649816,
      "height_km": 597.7415573009723,
      "semi_major_axis_km": 6972.594984425657,
      "eccentricity": 0.0001421,
      "inclination_deg": 97.7515,
      "raan_deg": 65.0914,
      "arg_perigee_deg": 255.9469,
      "mean_anomaly_deg": 104.1592,
      "mean_motion_rev_day": 14.91114877
    }
  ]
}