TRANSPORTER-16 OBJECT CD
1 68491U 26067CD  26105.87468242 -.00000146  00000+0 -91616-5 0  9994
2 68491  97.7515  65.0914 0001421 255.9469 104.1592 14.91114877  2431
